ONEWEB-0603             
1 54667U 22166AB  26064.90601060 -.00000208  00000+0 -53463-3 0  9990
2 54667  87.9176 264.5459 0001390  88.0278 272.1015 13.21825728157830
ONEWEB-0604             
1 54668U 22166AC  26064.97018881 -.00000008  00000+0 -50402-4 0  9990
2 54668  87.9176 264.5474 0001634  92.6298 267.5023 13.21827115157808
ONEWEB-0605             
1 54669U 22166AD  26064.96360806  .00000105  00000+0  22171-3 0  9994
2 54669  87.9167 264.5735 0001395  70.9826 289.1459 13.21823954157876
ONEWEB-0606             
1 54670U 22166AE  26064.90931860  .00000026  00000+0  30627-4 0  9992
2 54670  87.9166 264.5967 0001745  89.7479 270.3855 13.21826295157924
ONEWEB-0607             
1 54671U 22166AF  26064.57362911  .00000129  00000+0  28160-3 0  9993
2 54671  87.9169 264.6272 0001430  88.2130 271.9168 13.21826014157852
ONEWEB-0608             
1 54672U 22166AG  26064.58019226  .00000086  00000+0  17562-3 0  9999
2 54672  87.9181 264.6207 0001174  73.8604 286.2659 13.21827435157869
ONEWEB-0610             
1 54673U 22166AH  26064.93892062 -.00000025  00000+0 -92427-4 0  9995
2 54673  87.9163 264.5730 0000989  79.3927 280.7318 13.21826219157817
ONEWEB-0611             
1 54674U 22166AJ  26064.93235717 -.00000022  00000+0 -85719-4 0  9997
2 54674  87.9163 264.5715 0001692  94.1745 265.9582 13.21828096157808
ONEWEB-0612             
1 54675U 22166AK  26064.56704651  .00000017  00000+0  96605-5 0  9994
2 54675  87.9174 264.6279 0001470  88.8982 271.2321 13.21826427157744
ONEWEB-0615             
1 54676U 22166AL  26064.62299116  .00000000  00000+0 -31171-4 0  9996
2 54676  87.9165 264.6407 0001544  89.5783 270.5528 13.21826115157764
ONEWEB-0655             
1 54677U 22166AM  26064.97679028  .00000063  00000+0  12212-3 0  9991
2 54677  87.9162 264.5722 0001398  99.4641 260.6651 13.21825727157801
ONEWEB-0659             
1 54678U 22166AN  26064.91754104 -.00000144  00000+0 -38000-3 0  9990
2 54678  87.9168 264.5854 0001613  87.0333 273.0986 13.21826211157881
ONEWEB-0685             
1 54679U 22166AP  26064.91790944 -.00000058  00000+0 -17269-3 0  9991
2 54679  87.9160 264.5801 0001359  91.4392 268.6898 13.21812291157770
ONEWEB-0712             
1 54680U 22166AQ  26064.93214213 -.00000057  00000+0 -18266-3 0  9992
2 54680  87.9005 249.3121 0001428 114.0860 246.0420 13.16593318158474
ONEWEB-0714             
1 54681U 22166AR  26064.62133070  .00000004  00000+0 -22028-4 0  9993
2 54681  87.9163 264.6343 0001433  92.7163 267.4135 13.21824186157857
ONEWEB-0532             
1 55140U 23004A   26064.91203179  .00000016  00000+0  82376-5 0  9991
2 55140  87.9154  26.3713 0001967  70.1883 289.9461 13.17649692153986
ONEWEB-0533             
1 55141U 23004B   26064.85110615  .00000175  00000+0  44998-3 0  9999
2 55141  87.9001  11.1757 0001616  80.7603 279.3708 13.12440966154500
