[{"OBJECT_NAME":"ONEWEB-0603","OBJECT_ID":"2022-166AB","EPOCH":"2026-03-05T21:44:39.315840","MEAN_MOTION":13.21825728,"ECCENTRICITY":0.00013904,"INCLINATION":87.9176,"RA_OF_ASC_NODE":264.5459,"ARG_OF_PERICENTER":88.0278,"MEAN_ANOMALY":272.1015,"EPHEMERIS_TYPE":0,"CLASSIFICATION_TYPE":"U","NORAD_CAT_ID":54667,"ELEMENT_SET_NO":999,"REV_AT_EPOCH":15783,"BSTAR":-0.00053462722,"MEAN_MOTION_DOT":-2.08e-6,"MEAN_MOTION_DDOT":0},{"OBJECT_NAME":"ONEWEB-0604","OBJECT_ID":"2022-166AC","EPOCH":"2026-03-05T23:17:04.313184","MEAN_MOTION":13.21827115,"ECCENTRICITY":0.00016349,"INCLINATION":87.9176,"RA_OF_ASC_NODE":264.5474,"ARG_OF_PERICENTER":92.6298,"MEAN_ANOMALY":267.5023,"EPHEMERIS_TYPE":0,"CLASSIFICATION_TYPE":"U","NORAD_CAT_ID":54668,"ELEMENT_SET_NO":999,"REV_AT_EPOCH":15780,"BSTAR":-5.0401649e-5,"MEAN_MOTION_DOT":-8.0e-8,"MEAN_MOTION_DDOT":0},{"OBJECT_NAME":"ONEWEB-0605","OBJECT_ID":"2022-166AD","EPOCH":"2026-03-05T23:07:35.736384","MEAN_MOTION":13.21823954,"ECCENTRICITY":0.00013951,"INCLINATION":87.9167,"RA_OF_ASC_NODE":264.5735,"ARG_OF_PERICENTER":70.9826,"MEAN_ANOMALY":289.1459,"EPHEMERIS_TYPE":0,"CLASSIFICATION_TYPE":"U","NORAD_CAT_ID":54669,"ELEMENT_SET_NO":999,"REV_AT_EPOCH":15787,"BSTAR":0.0002217121,"MEAN_MOTION_DOT":1.05e-6,"MEAN_MOTION_DDOT":0},{"OBJECT_NAME":"ONEWEB-0606","OBJECT_ID":"2022-166AE","EPOCH":"2026-03-05T21:49:25.127040","MEAN_MOTION":13.21826295,"ECCENTRICITY":0.00017459,"INCLINATION":87.9166,"RA_OF_ASC_NODE":264.5967,"ARG_OF_PERICENTER":89.7479,"MEAN_ANOMALY":270.3855,"EPHEMERIS_TYPE":0,"CLASSIFICATION_TYPE":"U","NORAD_CAT_ID":54670,"ELEMENT_SET_NO":999,"REV_AT_EPOCH":15792,"BSTAR":3.0627377e-5,"MEAN_MOTION_DOT":2.6e-7,"MEAN_MOTION_DDOT":0},{"OBJECT_NAME":"ONEWEB-0607","OBJECT_ID":"2022-166AF","EPOCH":"2026-03-05T13:46:01.555104","MEAN_MOTION":13.21826014,"ECCENTRICITY":0.000143,"INCLINATION":87.9169,"RA_OF_ASC_NODE":264.6272,"ARG_OF_PERICENTER":88.213,"MEAN_ANOMALY":271.9168,"EPHEMERIS_TYPE":0,"CLASSIFICATION_TYPE":"U","NORAD_CAT_ID":54671,"ELEMENT_SET_NO":999,"REV_AT_EPOCH":15785,"BSTAR":0.0002816,"MEAN_MOTION_DOT":1.29e-6,"MEAN_MOTION_DDOT":0},{"OBJECT_NAME":"ONEWEB-0608","OBJECT_ID":"2022-166AG","EPOCH":"2026-03-05T13:55:28.611264","MEAN_MOTION":13.21827435,"ECCENTRICITY":0.0001174,"INCLINATION":87.9181,"RA_OF_ASC_NODE":264.6207,"ARG_OF_PERICENTER":73.8604,"MEAN_ANOMALY":286.2659,"EPHEMERIS_TYPE":0,"CLASSIFICATION_TYPE":"U","NORAD_CAT_ID":54672,"ELEMENT_SET_NO":999,"REV_AT_EPOCH":15786,"BSTAR":0.00017562,"MEAN_MOTION_DOT":8.6e-7,"MEAN_MOTION_DDOT":0},{"OBJECT_NAME":"ONEWEB-0610","OBJECT_ID":"2022-166AH","EPOCH":"2026-03-05T22:32:02.741568","MEAN_MOTION":13.21826219,"ECCENTRICITY":9.897e-5,"INCLINATION":87.9163,"RA_OF_ASC_NODE":264.573,"ARG_OF_PERICENTER":79.3927,"MEAN_ANOMALY":280.7318,"EPHEMERIS_TYPE":0,"CLASSIFICATION_TYPE":"U","NORAD_CAT_ID":54673,"ELEMENT_SET_NO":999,"REV_AT_EPOCH":15781,"BSTAR":-9.2426887e-5,"MEAN_MOTION_DOT":-2.5e-7,"MEAN_MOTION_DDOT":0},{"OBJECT_NAME":"ONEWEB-0611","OBJECT_ID":"2022-166AJ","EPOCH":"2026-03-05T22:22:35.659488","MEAN_MOTION":13.21828096,"ECCENTRICITY":0.00016925,"INCLINATION":87.9163,"RA_OF_ASC_NODE":264.5715,"ARG_OF_PERICENTER":94.1745,"MEAN_ANOMALY":265.9582,"EPHEMERIS_TYPE":0,"CLASSIFICATION_TYPE":"U","NORAD_CAT_ID":54674,"ELEMENT_SET_NO":999,"REV_AT_EPOCH":15780,"BSTAR":-8.5718959e-5,"MEAN_MOTION_DOT":-2.2e-7,"MEAN_MOTION_DDOT":0},{"OBJECT_NAME":"ONEWEB-0612","OBJECT_ID":"2022-166AK","EPOCH":"2026-03-05T13:36:32.818464","MEAN_MOTION":13.21826427,"ECCENTRICITY":0.000147,"INCLINATION":87.9174,"RA_OF_ASC_NODE":264.6279,"ARG_OF_PERICENTER":88.8982,"MEAN_ANOMALY":271.2321,"EPHEMERIS_TYPE":0,"CLASSIFICATION_TYPE":"U","NORAD_CAT_ID":54675,"ELEMENT_SET_NO":999,"REV_AT_EPOCH":15774,"BSTAR":9.6605e-6,"MEAN_MOTION_DOT":1.7e-7,"MEAN_MOTION_DDOT":0},{"OBJECT_NAME":"ONEWEB-0615","OBJECT_ID":"2022-166AL","EPOCH":"2026-03-05T14:57:06.436224","MEAN_MOTION":13.21826115,"ECCENTRICITY":0.0001544,"INCLINATION":87.9165,"RA_OF_ASC_NODE":264.6407,"ARG_OF_PERICENTER":89.5783,"MEAN_ANOMALY":270.5528,"EPHEMERIS_TYPE":0,"CLASSIFICATION_TYPE":"U","NORAD_CAT_ID":54676,"ELEMENT_SET_NO":999,"REV_AT_EPOCH":15776,"BSTAR":-3.1171e-5,"MEAN_MOTION_DOT":0,"MEAN_MOTION_DDOT":0},{"OBJECT_NAME":"ONEWEB-0655","OBJECT_ID":"2022-166AM","EPOCH":"2026-03-05T23:26:34.680192","MEAN_MOTION":13.21825727,"ECCENTRICITY":0.00013985,"INCLINATION":87.9162,"RA_OF_ASC_NODE":264.5722,"ARG_OF_PERICENTER":99.4641,"MEAN_ANOMALY":260.6651,"EPHEMERIS_TYPE":0,"CLASSIFICATION_TYPE":"U","NORAD_CAT_ID":54677,"ELEMENT_SET_NO":999,"REV_AT_EPOCH":15780,"BSTAR":0.00012212265,"MEAN_MOTION_DOT":6.3e-7,"MEAN_MOTION_DDOT":0},{"OBJECT_NAME":"ONEWEB-0659","OBJECT_ID":"2022-166AN","EPOCH":"2026-03-05T22:01:15.545856","MEAN_MOTION":13.21826211,"ECCENTRICITY":0.00016132,"INCLINATION":87.9168,"RA_OF_ASC_NODE":264.5854,"ARG_OF_PERICENTER":87.0333,"MEAN_ANOMALY":273.0986,"EPHEMERIS_TYPE":0,"CLASSIFICATION_TYPE":"U","NORAD_CAT_ID":54678,"ELEMENT_SET_NO":999,"REV_AT_EPOCH":15788,"BSTAR":-0.00038000078,"MEAN_MOTION_DOT":-1.44e-6,"MEAN_MOTION_DDOT":0},{"OBJECT_NAME":"ONEWEB-0685","OBJECT_ID":"2022-166AP","EPOCH":"2026-03-05T22:01:47.375616","MEAN_MOTION":13.21812291,"ECCENTRICITY":0.00013595,"INCLINATION":87.916,"RA_OF_ASC_NODE":264.5801,"ARG_OF_PERICENTER":91.4392,"MEAN_ANOMALY":268.6898,"EPHEMERIS_TYPE":0,"CLASSIFICATION_TYPE":"U","NORAD_CAT_ID":54679,"ELEMENT_SET_NO":999,"REV_AT_EPOCH":15777,"BSTAR":-0.00017269342,"MEAN_MOTION_DOT":-5.8e-7,"MEAN_MOTION_DDOT":0},{"OBJECT_NAME":"ONEWEB-0712","OBJECT_ID":"2022-166AQ","EPOCH":"2026-03-05T22:22:17.080032","MEAN_MOTION":13.16593318,"ECCENTRICITY":0.00014281,"INCLINATION":87.9005,"RA_OF_ASC_NODE":249.3121,"ARG_OF_PERICENTER":114.086,"MEAN_ANOMALY":246.042,"EPHEMERIS_TYPE":0,"CLASSIFICATION_TYPE":"U","NORAD_CAT_ID":54680,"ELEMENT_SET_NO":999,"REV_AT_EPOCH":15847,"BSTAR":-0.00018265855,"MEAN_MOTION_DOT":-5.7e-7,"MEAN_MOTION_DDOT":0},{"OBJECT_NAME":"ONEWEB-0714","OBJECT_ID":"2022-166AR","EPOCH":"2026-03-05T14:54:42.972480","MEAN_MOTION":13.21824186,"ECCENTRICITY":0.0001433,"INCLINATION":87.9163,"RA_OF_ASC_NODE":264.6343,"ARG_OF_PERICENTER":92.7163,"MEAN_ANOMALY":267.4135,"EPHEMERIS_TYPE":0,"CLASSIFICATION_TYPE":"U","NORAD_CAT_ID":54681,"ELEMENT_SET_NO":999,"REV_AT_EPOCH":15785,"BSTAR":-2.2028e-5,"MEAN_MOTION_DOT":4.0e-8,"MEAN_MOTION_DDOT":0},{"OBJECT_NAME":"ONEWEB-0532","OBJECT_ID":"2023-004A","EPOCH":"2026-03-05T21:53:19.546656","MEAN_MOTION":13.17649692,"ECCENTRICITY":0.00019677,"INCLINATION":87.9154,"RA_OF_ASC_NODE":26.3713,"ARG_OF_PERICENTER":70.1883,"MEAN_ANOMALY":289.9461,"EPHEMERIS_TYPE":0,"CLASSIFICATION_TYPE":"U","NORAD_CAT_ID":55140,"ELEMENT_SET_NO":999,"REV_AT_EPOCH":15398,"BSTAR":8.237635e-6,"MEAN_MOTION_DOT":1.6e-7,"MEAN_MOTION_DDOT":0},{"OBJECT_NAME":"ONEWEB-0533","OBJECT_ID":"2023-004B","EPOCH":"2026-03-05T20:25:35.571360","MEAN_MOTION":13.12440966,"ECCENTRICITY":0.00016165,"INCLINATION":87.9001,"RA_OF_ASC_NODE":11.1757,"ARG_OF_PERICENTER":80.7603,"MEAN_ANOMALY":279.3708,"EPHEMERIS_TYPE":0,"CLASSIFICATION_TYPE":"U","NORAD_CAT_ID":55141,"ELEMENT_SET_NO":999,"REV_AT_EPOCH":15450,"BSTAR":0.00044998434,"MEAN_MOTION_DOT":1.75e-6,"MEAN_MOTION_DDOT":0}]
